     2.100          NAVIGATION                              RINEX VERSION / TYPE
fic2rin                                 03/21/2011 00:19:48 PGM / RUN BY / DATE
                                                            END OF HEADER
29 11  3 20  8  0  0.0  .193689018488D-03  .284217094304D-11  .000000000000D+00
     .920000000000D+02 -.862187500000D+02  .489198948528D-08  .348274294359D+00
    -.442937016487D-05  .269002374262D-02  .786967575550D-05  .515355441284D+04
     .288000000000D+05  .558793544769D-08 -.747735464721D+00 -.819563865662D-07
     .961514280323D+00  .232562500000D+03 -.125289014758D+01 -.835034782550D-08
    -.655741599984D-09  .100000000000D+01  .162800000000D+04  .000000000000D+00
     .340000000000D+01  .000000000000D+00 -.884756445885D-08  .920000000000D+02
     .216060000000D+05  .400000000000D+01
30 11  3 20  8  0  0.0  .330572016537D-03  .295585778076D-11  .000000000000D+00
     .290000000000D+02  .677187500000D+02  .502520932014D-08 -.273278684676D+01
     .335276126862D-05  .125820034882D-01  .455603003502D-05  .515364775658D+04
     .288000000000D+05  .184401869774D-06 -.187514015969D+01  .119209289551D-06
     .959392275225D+00  .286625000000D+03  .151919111913D+01 -.830498879326D-08
     .544665544649D-09  .100000000000D+01  .162800000000D+04  .000000000000D+00
     .340000000000D+01  .000000000000D+00 -.791624188423D-08  .290000000000D+02
     .216060000000D+05  .400000000000D+01
31 11  3 20  8  0  0.0  .554537400603D-04  .488853402203D-11  .000000000000D+00
     .120000000000D+02 -.406250000000D+00  .372801242954D-08  .932231278809D+00
     .745058059692D-08  .783079769462D-02  .133179128170D-04  .515362924385D+04
     .288000000000D+05  .391155481339D-07 -.287069110166D+01 -.210478901863D-06
     .979580272616D+00  .131843750000D+03 -.975596922236D+00 -.769603485646D-08
     .331442377334D-09  .100000000000D+01  .162800000000D+04  .000000000000D+00
     .240000000000D+01  .000000000000D+00 -.130385160446D-07  .120000000000D+02
     .216060000000D+05  .400000000000D+01
32 11  3 20  8  0  0.0 -.218615867198D-03 -.750333128963D-11  .000000000000D+00
     .119000000000D+03  .632500000000D+02  .505842498942D-08  .166009005657D+01
     .317394733429D-05  .122269308195D-01  .158138573170D-05  .515371584129D+04
     .288000000000D+05  .253319740295D-06  .139623908952D+01  .135973095894D-06
     .955333862519D+00  .341968750000D+03 -.809952647950D+00 -.854464163291D-08
     .141791620476D-09  .100000000000D+01  .162800000000D+04  .000000000000D+00
     .240000000000D+01  .000000000000D+00 -.325962901115D-08  .119000000000D+03
     .216060000000D+05  .400000000000D+01
13 11  3 20  7 59 44.0  .278368126601D-03 -.147792889038D-11  .000000000000D+00
     .000000000000D+00 -.119968750000D+03  .392587781428D-08 -.285962025843D+01
    -.616163015366D-05  .463011115789D-02  .790134072304D-05  .515362670708D+04
     .287840000000D+05  .409781932831D-07  .243612779276D+01  .987201929092D-07
     .990310122803D+00  .241187500000D+03  .179546597502D+01 -.787711382769D-08
    -.554665961207D-09  .100000000000D+01  .162800000000D+04  .000000000000D+00
     .240000000000D+01  .000000000000D+00 -.111758708954D-07  .000000000000D+00
     .237360000000D+05  .400000000000D+01
25 11  3 20  7 59 44.0 -.712717883289D-04 -.682121026330D-12  .000000000000D+00
     .200000000000D+01  .582812500000D+02  .504306720685D-08 -.801794508268D+00
     .301748514175D-05  .524478498846D-03  .488385558128D-05  .515367496681D+04
     .287840000000D+05 -.167638063431D-07 -.184613535545D+01 -.130385160446D-07
     .962756151481D+00  .288281250000D+03  .886444864375D+00 -.843999441679D-08
     .475734101949D-09  .100000000000D+01  .162800000000D+04  .000000000000D+00
     .240000000000D+01  .000000000000D+00  .465661287308D-08  .200000000000D+01
     .241560000000D+05  .400000000000D+01
 7 11  3 20  7 59 44.0  .603683292866D-05  .909494701773D-12  .000000000000D+00
     .100000000000D+01  .120312500000D+02  .384730311276D-08  .908292039084D+00
     .629574060440D-06  .422257347964D-02  .149328261614D-04  .515367851257D+04
     .287840000000D+05  .242143869400D-07 -.287163759210D+01  .124797224998D-06
     .974406560424D+00  .984375000000D+02 -.311051402985D+01 -.768817738630D-08
     .328227957726D-09  .100000000000D+01  .162800000000D+04  .000000000000D+00
     .240000000000D+01  .000000000000D+00 -.107102096081D-07  .100000000000D+01
     .267360000000D+05  .400000000000D+01
20 11  3 20  7 59 44.0  .487300567329D-04  .113686837722D-12  .000000000000D+00
     .130000000000D+02  .848437500000D+02  .562594862906D-08 -.763021444529D+00
     .445544719696D-05  .470722524915D-02  .266544520855D-05  .515370009041D+04
     .287840000000D+05  .540167093277D-07  .127274432024D+01  .633299350739D-07
     .933626918749D+00  .313687500000D+03  .127833236155D+01 -.899394606253D-08
     .360014996070D-09  .100000000000D+01  .162800000000D+04  .000000000000D+00
     .240000000000D+01  .000000000000D+00 -.791624188423D-08  .130000000000D+02
     .271860000000D+05  .400000000000D+01
 7 11  3 20  9 59 44.0  .604335218668D-05  .909494701773D-12  .000000000000D+00
     .120000000000D+02  .850000000000D+01  .390337687703D-08  .195904633229D+01
     .456348061562D-06  .422224635258D-02  .140313059092D-04  .515367385483D+04
     .359840000000D+05 -.521540641785D-07 -.287169240910D+01  .428408384323D-07
     .974408611436D+00  .115781250000D+03 -.311109381647D+01 -.766460497585D-08
     .247153152064D-09  .100000000000D+01  .162800000000D+04  .000000000000D+00
     .240000000000D+01  .000000000000D+00 -.107102096081D-07  .120000000000D+02
     .288060000000D+05  .400000000000D+01
13 11  3 20  9 59 44.0  .278357416391D-03 -.147792889038D-11  .000000000000D+00
     .100000000000D+01 -.111500000000D+03  .396945105786D-08 -.180945210237D+01
    -.574998557568D-05  .463101221249D-02  .770203769207D-05  .515362529755D+04
     .359840000000D+05 -.335276126862D-07  .243607108421D+01  .128522515297D-06
     .990306010540D+00  .245625000000D+03  .179550439417D+01 -.791318675885D-08
    -.551808699333D-09  .100000000000D+01  .162800000000D+04  .000000000000D+00
     .240000000000D+01  .000000000000D+00 -.111758708954D-07  .100000000000D+01
     .288060000000D+05  .400000000000D+01
20 11  3 20  9 59 44.0  .487305223942D-04  .113686837722D-12  .000000000000D+00
     .250000000000D+02  .895625000000D+02  .553808782644D-08  .287137025553D+00
     .463426113129D-05  .470846425742D-02  .305287539959D-05  .515370235825D+04
     .359840000000D+05 -.540167093277D-07  .127268020785D+01  .633299350739D-07
     .933629405709D+00  .305000000000D+03  .127834582917D+01 -.894072956013D-08
     .285726187357D-09  .100000000000D+01  .162800000000D+04  .000000000000D+00
     .240000000000D+01  .000000000000D+00 -.791624188423D-08  .250000000000D+02
     .288060000000D+05  .400000000000D+01
25 11  3 20  9 59 44.0 -.712764449418D-04 -.682121026330D-12  .000000000000D+00
     .240000000000D+02  .597187500000D+02  .505021036153D-08  .248006850344D+00
     .299327075481D-05  .524578616023D-03  .501424074173D-05  .515367504311D+04
     .359840000000D+05  .335276126862D-07 -.184619651713D+01 -.689178705215D-07
     .962759501563D+00  .285281250000D+03  .886827859254D+00 -.848999649958D-08
     .514307137242D-09  .100000000000D+01  .162800000000D+04  .000000000000D+00
     .240000000000D+01  .000000000000D+00  .465661287308D-08  .240000000000D+02
     .288060000000D+05  .400000000000D+01
 1 11  3 20 10  0  0.0 -.216738786548D-03 -.272848410532D-11  .000000000000D+00
     .400000000000D+02  .560625000000D+02  .485234497679D-08 -.877964966102D+00
     .302121043205D-05  .455769908149D-02  .487081706524D-05  .515357250023D+04
     .360000000000D+05  .149011611938D-07 -.183346169383D+01  .521540641785D-07
     .967850330668D+00  .288343750000D+03  .867140222271D+00 -.839606401548D-08
     .494663461862D-09  .100000000000D+01  .162800000000D+04  .000000000000D+00
     .240000000000D+01  .630000000000D+02 -.195577740669D-07  .400000000000D+02
     .288060000000D+05  .400000000000D+01
 2 11  3 20 10  0  0.0  .326086767018D-03  .193267624127D-11  .000000000000D+00
     .860000000000D+02  .734687500000D+02  .453447459335D-08 -.265921393603D+01
     .368244946003D-05  .101037552813D-01  .149589031935D-04  .515374383354D+04
     .360000000000D+05 -.167638063431D-06  .245681487929D+00 -.102445483208D-06
     .939695209734D+00  .778750000000D+02 -.305152930456D+01 -.795783147562D-08
     .275011455331D-10  .100000000000D+01  .162800000000D+04  .000000000000D+00
     .240000000000D+01  .000000000000D+00 -.172294676304D-07  .860000000000D+02
     .288060000000D+05  .400000000000D+01
 3 11  3 20 10  0  0.0  .690830405802D-03  .511590769747D-11  .000000000000D+00
     .870000000000D+02 -.880312500000D+02  .566630745302D-08 -.264932094521D+01
    -.468455255032D-05  .140366257401D-01  .541843473911D-05  .515364552689D+04
     .360000000000D+05  .234693288803D-06 -.910831000704D+00 -.132247805595D-06
     .928401230541D+00  .254656250000D+03  .107744915711D+01 -.860035823944D-08
    -.422517599554D-09  .100000000000D+01  .162800000000D+04  .000000000000D+00
     .340000000000D+01  .000000000000D+00 -.419095158577D-08  .870000000000D+02
     .288060000000D+05  .400000000000D+01
 4 11  3 20 10  0  0.0  .656237825751D-04  .103455022327D-10  .000000000000D+00
     .550000000000D+02  .648125000000D+02  .475055502254D-08  .398855307227D+00
     .359304249287D-05  .958974903915D-02  .139530748129D-04  .515362730980D+04
     .360000000000D+05 -.353902578354D-07  .263143811465D+00  .173225998878D-06
     .938785030382D+00  .983125000000D+02  .713601425392D+00 -.823462871962D-08
    -.264296723305D-10  .100000000000D+01  .162800000000D+04  .000000000000D+00
     .240000000000D+01  .000000000000D+00 -.605359673500D-08  .550000000000D+02
     .288060000000D+05  .400000000000D+01
